{
"type": "FeatureCollection",
"name": "Promulgation sites",
"crs": { "type": "name", "properties": { "name": "urn:ogc:def:crs:OGC:1.3:CRS84" } },
"features": [
{ "type": "Feature", "properties": { "location": "Abingdon", "latitude": "51.6714842", "longitude": "-1.2779715", "Source": "Automatically computed" }, "geometry": { "type": "Point", "coordinates": [ -1.2779715, 51.6714842 ] } },
{ "type": "Feature", "properties": { "location": "Amesbury", "latitude": "51.1706875", "longitude": "-1.7706128", "Source": "Automatically computed" }, "geometry": { "type": "Point", "coordinates": [ -1.7706128, 51.1706875 ] } },
{ "type": "Feature", "properties": { "location": "Axminster", "latitude": "50.7820966", "longitude": "-2.9979915", "Source": "Automatically computed" }, "geometry": { "type": "Point", "coordinates": [ -2.9979915, 50.7820966 ] } },
{ "type": "Feature", "properties": { "location": "Bickleigh", "latitude": "50.8427425", "longitude": "-3.502667", "Source": "Automatically computed" }, "geometry": { "type": "Point", "coordinates": [ -3.502667, 50.8427425 ] } },
{ "type": "Feature", "properties": { "location": "Buckingham", "latitude": "51.9983175", "longitude": "-0.9786725", "Source": "Automatically computed" }, "geometry": { "type": "Point", "coordinates": [ -0.9786725, 51.9983175 ] } },
{ "type": "Feature", "properties": { "location": "Cheddar", "latitude": "51.2753365", "longitude": "-2.7766545", "Source": "Automatically computed" }, "geometry": { "type": "Point", "coordinates": [ -2.7766545, 51.2753365 ] } },
{ "type": "Feature", "properties": { "location": "Chippenham", "latitude": "51.4587621", "longitude": "-2.1159032", "Source": "Automatically computed" }, "geometry": { "type": "Point", "coordinates": [ -2.1159032, 51.4587621 ] } },
{ "type": "Feature", "properties": { "location": "Cirencester", "latitude": "51.7171029", "longitude": "-1.9661616", "Source": "Automatically computed" }, "geometry": { "type": "Point", "coordinates": [ -1.9661616, 51.7171029 ] } },
{ "type": "Feature", "properties": { "location": "Colchester", "latitude": "51.8896903", "longitude": "0.8994651", "Source": "Automatically computed" }, "geometry": { "type": "Point", "coordinates": [ 0.8994651, 51.8896903 ] } },
{ "type": "Feature", "properties": { "location": "Cookham", "latitude": "51.5600965", "longitude": "-0.7081509", "Source": "Automatically computed" }, "geometry": { "type": "Point", "coordinates": [ -0.7081509, 51.5600965 ] } },
{ "type": "Feature", "properties": { "location": "Dorchester", "latitude": "50.7132064", "longitude": "-2.4371229", "Source": "Automatically computed" }, "geometry": { "type": "Point", "coordinates": [ -2.4371229, 50.7132064 ] } },
{ "type": "Feature", "properties": { "location": "Droitwich", "latitude": "52.26851", "longitude": "-2.1486075", "Source": "Automatically computed" }, "geometry": { "type": "Point", "coordinates": [ -2.1486075, 52.26851 ] } },
{ "type": "Feature", "properties": { "location": "Epsom", "latitude": "51.3326098", "longitude": "-0.2678212", "Source": "Automatically computed" }, "geometry": { "type": "Point", "coordinates": [ -0.2678212, 51.3326098 ] } },
{ "type": "Feature", "properties": { "location": "Exeter", "latitude": "50.7256138", "longitude": "-3.5269209", "Source": "Automatically computed" }, "geometry": { "type": "Point", "coordinates": [ -3.5269209, 50.7256138 ] } },
{ "type": "Feature", "properties": { "location": "Frome", "latitude": "51.2294852", "longitude": "-2.3198467", "Source": "Automatically computed" }, "geometry": { "type": "Point", "coordinates": [ -2.3198467, 51.2294852 ] } },
{ "type": "Feature", "properties": { "location": "Gadshill", "latitude": "52.2698549", "longitude": "-1.545795", "Source": "Automatically computed" }, "geometry": { "type": "Point", "coordinates": [ -1.545795, 52.2698549 ] } },
{ "type": "Feature", "properties": { "location": "Glastonbury", "latitude": "51.14804", "longitude": "-2.716577", "Source": "Automatically computed" }, "geometry": { "type": "Point", "coordinates": [ -2.716577, 51.14804 ] } },
{ "type": "Feature", "properties": { "location": "Gloucester", "latitude": "51.8653705", "longitude": "-2.2458192", "Source": "Automatically computed" }, "geometry": { "type": "Point", "coordinates": [ -2.2458192, 51.8653705 ] } },
{ "type": "Feature", "properties": { "location": "Headington", "latitude": "51.7601673", "longitude": "-1.2109282", "Source": "Automatically computed" }, "geometry": { "type": "Point", "coordinates": [ -1.2109282, 51.7601673 ] } },
{ "type": "Feature", "properties": { "location": "Kingston-on-Thames", "latitude": "51.6743611", "longitude": "-1.2821216", "Source": "Automatically computed" }, "geometry": { "type": "Point", "coordinates": [ -1.2821216, 51.6743611 ] } },
{ "type": "Feature", "properties": { "location": "London", "latitude": "51.51400037617063", "longitude": "-0.0981885391342617", "Source": "Google Maps (centred on St Pauls)" }, "geometry": { "type": "Point", "coordinates": [ -0.098188539134262, 51.514000376170628 ] } },
{ "type": "Feature", "properties": { "location": "Lyminster", "latitude": "50.8339978", "longitude": "-0.5475421", "Source": "Automatically computed" }, "geometry": { "type": "Point", "coordinates": [ -0.5475421, 50.8339978 ] } },
{ "type": "Feature", "properties": { "location": "Malmesbury", "latitude": "51.58447", "longitude": "-2.0982042", "Source": "Automatically computed" }, "geometry": { "type": "Point", "coordinates": [ -2.0982042, 51.58447 ] } },
{ "type": "Feature", "properties": { "location": "Milton", "latitude": "52.2422961", "longitude": "0.1604726", "Source": "Automatically computed" }, "geometry": { "type": "Point", "coordinates": [ 0.1604726, 52.2422961 ] } },
{ "type": "Feature", "properties": { "location": "Nottingham", "latitude": "52.9534193", "longitude": "-1.1496461", "Source": "Automatically computed" }, "geometry": { "type": "Point", "coordinates": [ -1.1496461, 52.9534193 ] } },
{ "type": "Feature", "properties": { "location": "Penkridge", "latitude": "52.7246633", "longitude": "-2.1127563", "Source": "Automatically computed" }, "geometry": { "type": "Point", "coordinates": [ -2.1127563, 52.7246633 ] } },
{ "type": "Feature", "properties": { "location": "Puddletown", "latitude": "50.7489205", "longitude": "-2.3468411", "Source": "Automatically computed" }, "geometry": { "type": "Point", "coordinates": [ -2.3468411, 50.7489205 ] } },
{ "type": "Feature", "properties": { "location": "Shrewsbury", "latitude": "52.707755", "longitude": "-2.7540658", "Source": "Automatically computed" }, "geometry": { "type": "Point", "coordinates": [ -2.7540658, 52.707755 ] } },
{ "type": "Feature", "properties": { "location": "Somerton", "latitude": "51.06161", "longitude": "-2.7548573", "Source": "Automatically computed" }, "geometry": { "type": "Point", "coordinates": [ -2.7548573, 51.06161 ] } },
{ "type": "Feature", "properties": { "location": "Southampton", "latitude": "50.9025349", "longitude": "-1.404189", "Source": "Automatically computed" }, "geometry": { "type": "Point", "coordinates": [ -1.404189, 50.9025349 ] } },
{ "type": "Feature", "properties": { "location": "Sutton Courtenay", "latitude": "51.6397508", "longitude": "-1.2777309", "Source": "Automatically computed" }, "geometry": { "type": "Point", "coordinates": [ -1.2777309, 51.6397508 ] } },
{ "type": "Feature", "properties": { "location": "Westminster", "latitude": "51.5004439", "longitude": "-0.1265398", "Source": "Automatically computed" }, "geometry": { "type": "Point", "coordinates": [ -0.1265398, 51.5004439 ] } },
{ "type": "Feature", "properties": { "location": "Wilton", "latitude": "51.0805315", "longitude": "-1.8607051", "Source": "Automatically computed" }, "geometry": { "type": "Point", "coordinates": [ -1.8607051, 51.0805315 ] } },
{ "type": "Feature", "properties": { "location": "Winchcombe", "latitude": "51.9527513", "longitude": "-1.9675136", "Source": "Automatically computed" }, "geometry": { "type": "Point", "coordinates": [ -1.9675136, 51.9527513 ] } },
{ "type": "Feature", "properties": { "location": "Winchester", "latitude": "51.0612766", "longitude": "-1.3131692", "Source": "Automatically computed" }, "geometry": { "type": "Point", "coordinates": [ -1.3131692, 51.0612766 ] } },
{ "type": "Feature", "properties": { "location": "Winchester, Southampton", "latitude": "50.9297324", "longitude": "-1.426927", "Source": "This is in error, OSM API found Winchester Road in Southampton." }, "geometry": { "type": "Point", "coordinates": [ -1.426927, 50.9297324 ] } },
{ "type": "Feature", "properties": { "location": "Windsor", "latitude": "51.4837886", "longitude": "-0.6040419", "Source": "Automatically computed" }, "geometry": { "type": "Point", "coordinates": [ -0.6040419, 51.4837886 ] } },
{ "type": "Feature", "properties": { "location": "Woolmer", "latitude": "51.0937792", "longitude": "-0.7481479", "Source": "Automatically computed" }, "geometry": { "type": "Point", "coordinates": [ -0.7481479, 51.0937792 ] } },
{ "type": "Feature", "properties": { "location": "Worthy", "latitude": "51.1033985", "longitude": "-1.3008489", "Source": "Automatically computed" }, "geometry": { "type": "Point", "coordinates": [ -1.3008489, 51.1033985 ] } },
{ "type": "Feature", "properties": { "location": "Beorchore", "latitude": "51.69487400256249", "longitude": "-2.457369744152353", "Source": "Localisation based on: Hill, David Henry (1975), The Anglo-Saxon Town (Unpublished Ph.D. thesis. University of Southampton), p. 264" }, "geometry": { "type": "Point", "coordinates": [ -2.457369744152353, 51.694874002562493 ] } },
{ "type": "Feature", "properties": { "location": "Edington", "latitude": "51.27841832362815", "longitude": "-2.1070989986437016", "Source": "Google Maps" }, "geometry": { "type": "Point", "coordinates": [ -2.107098998643702, 51.278418323628152 ] } },
{ "type": "Feature", "properties": { "location": "Lifton", "latitude": "50.64319371013454", "longitude": "-4.28368935052656", "Source": "Google Maps" }, "geometry": { "type": "Point", "coordinates": [ -4.28368935052656, 50.64319371013454 ] } },
{ "type": "Feature", "properties": { "location": "Wantage", "latitude": "51.589947259569556", "longitude": "-1.42424436988753", "Source": "Google Maps" }, "geometry": { "type": "Point", "coordinates": [ -1.42424436988753, 51.589947259569556 ] } },
{ "type": "Feature", "properties": { "location": "Calne", "latitude": "51.44000780076725", "longitude": "-2.003403894084179", "Source": "Google Maps" }, "geometry": { "type": "Point", "coordinates": [ -2.003403894084179, 51.440007800767248 ] } },
{ "type": "Feature", "properties": { "location": "Weardburg", "latitude": "53.33640367222656", "longitude": "-3.33658552507029", "Source": "Localisation based on: Coates, R., ‘Æthelflæd's Fortification of Weardburh’, Notes and Queries 243 (1998), 8–12." }, "geometry": { "type": "Point", "coordinates": [ -3.33658552507029, 53.33640367222656 ] } }
]
}
